start=new Date('2022-10-18T00:00:00.000Z').valueOf();
sats=[{"ARG_OF_PERICENTER":"51.8482","ELEMENT_SET_NO":"999","ECCENTRICITY":"0.00018510","EPOCH":"2022-10-17T03:23:09.029472","INCLINATION":"53.0552","TLE_LINE1":"1 46051U 20055AA  22290.14107673 -.00000832  00000-0 -36934-4 0  9996","COUNTRY_CODE":"US","BSTAR":"-0.00003693400000","SITE":"AFETR","MEAN_MOTION_DOT":"-0.00000832","TIME_SYSTEM":"UTC","FILE":"3619530","EPHEMERIS_TYPE":"0","CENTER_NAME":"EARTH","DECAY_DATE":null,"SEMIMAJOR_AXIS":"6925.389","RA_OF_ASC_NODE":"281.1699","REV_AT_EPOCH":"12221","OBJECT_NAME":"STARLINK-1540","CLASSIFICATION_TYPE":"U","OBJECT_TYPE":"PAYLOAD","MEAN_ELEMENT_THEORY":"SGP4","RCS_SIZE":"LARGE","LAUNCH_DATE":"2020-08-07","PERIOD":"95.593","MEAN_MOTION":"15.06386713","APOAPSIS":"548.536","REF_FRAME":"TEME","OBJECT_ID":"2020-055AA","MEAN_ANOMALY":"308.2674","TLE_LINE2":"2 46051  53.0552 281.1699 0001851  51.8482 308.2674 15.06386713122215","GP_ID":"215404374","MEAN_MOTION_DDOT":"0.0000000000000","NORAD_CAT_ID":"46051","PERIAPSIS":"545.972"},{"SEMIMAJOR_AXIS":"6925.360","RA_OF_ASC_NODE":"280.0479","DECAY_DATE":null,"TIME_SYSTEM":"UTC","FILE":"3619530","EPHEMERIS_TYPE":"0","CENTER_NAME":"EARTH","MEAN_MOTION_DOT":"-0.00000172","SITE":"AFETR","TLE_LINE1":"1 46052U 20055AB  22290.39172069 -.00000172  00000-0  73653-5 0  9991","COUNTRY_CODE":"US","BSTAR":"0.00000736530000","ARG_OF_PERICENTER":"63.1014","ECCENTRICITY":"0.00018370","INCLINATION":"53.0551","ELEMENT_SET_NO":"999","EPOCH":"2022-10-17T09:24:04.667616","OBJECT_TYPE":"PAYLOAD","CLASSIFICATION_TYPE":"U","OBJECT_NAME":"STARLINK-1541","REV_AT_EPOCH":"12221","MEAN_MOTION":"15.06396405","APOAPSIS":"548.497","PERIOD":"95.592","LAUNCH_DATE":"2020-08-07","MEAN_ELEMENT_THEORY":"SGP4","RCS_SIZE":"LARGE","PERIAPSIS":"545.952","NORAD_CAT_ID":"46052","MEAN_MOTION_DDOT":"0.0000000000000","TLE_LINE2":"2 46052  53.0551 280.0479 0001837  63.1014 297.0163 15.06396405122217","GP_ID":"215405116","MEAN_ANOMALY":"297.0163","REF_FRAME":"TEME","OBJECT_ID":"2020-055AB"},{"RA_OF_ASC_NODE":"280.0398","SEMIMAJOR_AXIS":"6925.376","DECAY_DATE":null,"CENTER_NAME":"EARTH","FILE":"3619530","EPHEMERIS_TYPE":"0","TIME_SYSTEM":"UTC","SITE":"AFETR","MEAN_MOTION_DOT":"0.00003844","BSTAR":"0.00027686000000","COUNTRY_CODE":"US","TLE_LINE1":"1 46053U 20055AC  22290.39542320  .00003844  00000-0  27686-3 0  9994","EPOCH":"2022-10-17T09:29:24.564480","ECCENTRICITY":"0.00015730","INCLINATION":"53.0533","ELEMENT_SET_NO":"999","ARG_OF_PERICENTER":"34.0823","OBJECT_TYPE":"PAYLOAD","CLASSIFICATION_TYPE":"U","OBJECT_NAME":"STARLINK-1543","REV_AT_EPOCH":"12224","APOAPSIS":"548.331","MEAN_MOTION":"15.06390938","PERIOD":"95.593","LAUNCH_DATE":"2020-08-07","RCS_SIZE":"LARGE","MEAN_ELEMENT_THEORY":"SGP4","PERIAPSIS":"546.152","MEAN_MOTION_DDOT":"0.0000000000000","NORAD_CAT_ID":"46053","GP_ID":"215403873","TLE_LINE2":"2 46053  53.0533 280.0398 0001573  34.0823 326.0267 15.06390938122246","MEAN_ANOMALY":"326.0267","OBJECT_ID":"2020-055AC","REF_FRAME":"TEME"},{"RCS_SIZE":"LARGE","MEAN_ELEMENT_THEORY":"SGP4","LAUNCH_DATE":"2020-08-07","PERIOD":"95.593","APOAPSIS":"548.323","MEAN_MOTION":"15.06387671","OBJECT_ID":"2020-055AD","REF_FRAME":"TEME","MEAN_ANOMALY":"290.3882","GP_ID":"215371403","TLE_LINE2":"2 46054  53.0534 279.7099 0001547  69.7273 290.3882 15.06387671121713","NORAD_CAT_ID":"46054","MEAN_MOTION_DDOT":"0.0000000000000","PERIAPSIS":"546.180","ELEMENT_SET_NO":"999","EPOCH":"2022-10-17T11:15:32.177088","ECCENTRICITY":"0.00015470","INCLINATION":"53.0534","ARG_OF_PERICENTER":"69.7273","BSTAR":"-0.00013589000000","COUNTRY_CODE":"US","TLE_LINE1":"1 46054U 20055AD  22290.46912242 -.00002304  00000-0 -13589-3 0  9996","MEAN_MOTION_DOT":"-0.00002304","SITE":"AFETR","FILE":"3618973","CENTER_NAME":"EARTH","TIME_SYSTEM":"UTC","EPHEMERIS_TYPE":"0","DECAY_DATE":null,"RA_OF_ASC_NODE":"279.7099","SEMIMAJOR_AXIS":"6925.386","REV_AT_EPOCH":"12171","OBJECT_NAME":"STARLINK-1548","CLASSIFICATION_TYPE":"U","OBJECT_TYPE":"PAYLOAD"},{"OBJECT_NAME":"STARLINK-1554","REV_AT_EPOCH":"12230","OBJECT_TYPE":"PAYLOAD","CLASSIFICATION_TYPE":"U","BSTAR":"0.00004881500000","TLE_LINE1":"1 46055U 20055AE  22290.78610270  .00000446  00000-0  48815-4 0  9992","COUNTRY_CODE":"US","ECCENTRICITY":"0.00015760","ELEMENT_SET_NO":"999","EPOCH":"2022-10-17T18:51:59.273280","INCLINATION":"53.0529","ARG_OF_PERICENTER":"61.5843","DECAY_DATE":null,"RA_OF_ASC_NODE":"278.2649","SEMIMAJOR_AXIS":"6925.306","MEAN_MOTION_DOT":"0.00000446","SITE":"AFETR","FILE":"3620294","EPHEMERIS_TYPE":"0","CENTER_NAME":"EARTH","TIME_SYSTEM":"UTC","MEAN_ANOMALY":"298.5305","GP_ID":"215445915","TLE_LINE2":"2 46055  53.0529 278.2649 0001576  61.5843 298.5305 15.06413751122303","OBJECT_ID":"2020-055AE","REF_FRAME":"TEME","PERIAPSIS":"546.080","NORAD_CAT_ID":"46055","MEAN_MOTION_DDOT":"0.0000000000000","LAUNCH_DATE":"2020-08-07","RCS_SIZE":"LARGE","MEAN_ELEMENT_THEORY":"SGP4","APOAPSIS":"548.263","MEAN_MOTION":"15.06413751","PERIOD":"95.591"},{"LAUNCH_DATE":"2020-08-07","RCS_SIZE":"LARGE","MEAN_ELEMENT_THEORY":"SGP4","APOAPSIS":"548.820","MEAN_MOTION":"15.06400893","PERIOD":"95.592","GP_ID":"215404618","TLE_LINE2":"2 46056  53.0558 279.9629 0002324  39.1138 321.0018 15.06400893122252","MEAN_ANOMALY":"321.0018","OBJECT_ID":"2020-055AF","REF_FRAME":"TEME","PERIAPSIS":"545.601","MEAN_MOTION_DDOT":"0.0000000000000","NORAD_CAT_ID":"46056","BSTAR":"-0.00002266500000","TLE_LINE1":"1 46056U 20055AF  22290.40919752 -.00000619  00000-0 -22665-4 0  9998","COUNTRY_CODE":"US","ECCENTRICITY":"0.00023240","EPOCH":"2022-10-17T09:49:14.665728","INCLINATION":"53.0558","ELEMENT_SET_NO":"999","ARG_OF_PERICENTER":"39.1138","RA_OF_ASC_NODE":"279.9629","SEMIMAJOR_AXIS":"6925.346","DECAY_DATE":null,"FILE":"3619530","TIME_SYSTEM":"UTC","CENTER_NAME":"EARTH","EPHEMERIS_TYPE":"0","MEAN_MOTION_DOT":"-0.00000619","SITE":"AFETR","OBJECT_NAME":"STARLINK-1561","REV_AT_EPOCH":"12225","OBJECT_TYPE":"PAYLOAD","CLASSIFICATION_TYPE":"U"},{"OBJECT_ID":"2020-055AH","REF_FRAME":"TEME","GP_ID":"215403374","TLE_LINE2":"2 46058  53.0573 281.7009 0001683  68.3721 291.7447 15.06395401122182","MEAN_ANOMALY":"291.7447","MEAN_MOTION_DDOT":"0.0000000000000","NORAD_CAT_ID":"46058","PERIAPSIS":"546.062","RCS_SIZE":"LARGE","MEAN_ELEMENT_THEORY":"SGP4","LAUNCH_DATE":"2020-08-07","PERIOD":"95.592","APOAPSIS":"548.393","MEAN_MOTION":"15.06395401","REV_AT_EPOCH":"12218","OBJECT_NAME":"STARLINK-1564","CLASSIFICATION_TYPE":"U","OBJECT_TYPE":"PAYLOAD","INCLINATION":"53.0573","EPOCH":"2022-10-17T00:33:17.643168","ECCENTRICITY":"0.00016830","ELEMENT_SET_NO":"999","ARG_OF_PERICENTER":"68.3721","BSTAR":"-0.00004337700000","COUNTRY_CODE":"US","TLE_LINE1":"1 46058U 20055AH  22290.02312087 -.00000928  00000-0 -43377-4 0  9992","CENTER_NAME":"EARTH","FILE":"3619530","TIME_SYSTEM":"UTC","EPHEMERIS_TYPE":"0","SITE":"AFETR","MEAN_MOTION_DOT":"-0.00000928","RA_OF_ASC_NODE":"281.7009","SEMIMAJOR_AXIS":"6925.363","DECAY_DATE":null},{"PERIAPSIS":"545.753","MEAN_MOTION_DDOT":"0.0000000000000","NORAD_CAT_ID":"46059","MEAN_ANOMALY":"296.8749","TLE_LINE2":"2 46059  53.0582 278.6950 0002079  63.2452 296.8749 15.06406712122244","GP_ID":"215447152","REF_FRAME":"TEME","OBJECT_ID":"2020-055AJ","MEAN_MOTION":"15.06406712","APOAPSIS":"548.633","PERIOD":"95.592","LAUNCH_DATE":"2020-08-07","MEAN_ELEMENT_THEORY":"SGP4","RCS_SIZE":"LARGE","OBJECT_TYPE":"PAYLOAD","CLASSIFICATION_TYPE":"U","OBJECT_NAME":"STARLINK-1570","REV_AT_EPOCH":"12224","DECAY_DATE":null,"SEMIMAJOR_AXIS":"6925.328","RA_OF_ASC_NODE":"278.6950","MEAN_MOTION_DOT":"0.00001307","SITE":"AFETR","FILE":"3620294","CENTER_NAME":"EARTH","TIME_SYSTEM":"UTC","EPHEMERIS_TYPE":"0","TLE_LINE1":"1 46059U 20055AJ  22290.69395452  .00001307  00000-0  10664-3 0  9995","COUNTRY_CODE":"US","BSTAR":"0.00010664000000","ARG_OF_PERICENTER":"63.2452","ECCENTRICITY":"0.00020790","EPOCH":"2022-10-17T16:39:17.670528","ELEMENT_SET_NO":"999","INCLINATION":"53.0582"},{"BSTAR":"-0.00000188180000","TLE_LINE1":"1 46060U 20055AK  22290.69027988 -.00000310  00000-0 -18818-5 0  9999","COUNTRY_CODE":"US","ECCENTRICITY":"0.00020790","ELEMENT_SET_NO":"999","INCLINATION":"53.0538","EPOCH":"2022-10-17T16:34:00.181632","ARG_OF_PERICENTER":"44.6870","RA_OF_ASC_NODE":"278.7107","SEMIMAJOR_AXIS":"6925.353","DECAY_DATE":null,"FILE":"3620294","CENTER_NAME":"EARTH","EPHEMERIS_TYPE":"0","TIME_SYSTEM":"UTC","MEAN_MOTION_DOT":"-0.00000310","SITE":"AFETR","OBJECT_NAME":"STARLINK-1572","REV_AT_EPOCH":"12225","OBJECT_TYPE":"PAYLOAD","CLASSIFICATION_TYPE":"U","LAUNCH_DATE":"2020-08-07","RCS_SIZE":"LARGE","MEAN_ELEMENT_THEORY":"SGP4","APOAPSIS":"548.658","MEAN_MOTION":"15.06398398","PERIOD":"95.592","GP_ID":"215445415","TLE_LINE2":"2 46060  53.0538 278.7107 0002079  44.6870 315.4287 15.06398398122255","MEAN_ANOMALY":"315.4287","OBJECT_ID":"2020-055AK","REF_FRAME":"TEME","PERIAPSIS":"545.779","NORAD_CAT_ID":"46060","MEAN_MOTION_DDOT":"0.0000000000000"},{"PERIOD":"95.592","APOAPSIS":"548.678","MEAN_MOTION":"15.06402784","RCS_SIZE":"LARGE","MEAN_ELEMENT_THEORY":"SGP4","LAUNCH_DATE":"2020-08-07","NORAD_CAT_ID":"46061","MEAN_MOTION_DDOT":"0.0000000000000","PERIAPSIS":"545.732","OBJECT_ID":"2020-055AL","REF_FRAME":"TEME","GP_ID":"215405117","TLE_LINE2":"2 46061  53.0553 280.5352 0002127  56.0903 304.0289 15.06402784122222","MEAN_ANOMALY":"304.0289","FILE":"3619530","CENTER_NAME":"EARTH","TIME_SYSTEM":"UTC","EPHEMERIS_TYPE":"0","MEAN_MOTION_DOT":"-0.00000496","SITE":"AFETR","RA_OF_ASC_NODE":"280.5352","SEMIMAJOR_AXIS":"6925.340","DECAY_DATE":null,"EPOCH":"2022-10-17T06:50:08.723616","ELEMENT_SET_NO":"999","INCLINATION":"53.0553","ECCENTRICITY":"0.00021270","ARG_OF_PERICENTER":"56.0903","BSTAR":"-0.00001440100000","TLE_LINE1":"1 46061U 20055AL  22290.28482319 -.00000496  00000-0 -14401-4 0  9996","COUNTRY_CODE":"US","CLASSIFICATION_TYPE":"U","OBJECT_TYPE":"PAYLOAD","REV_AT_EPOCH":"12222","OBJECT_NAME":"STARLINK-1573"}];
